IRIDIUM 155             
1 43573U 18061E   24265.19433684  .00000622  00000+0  21517-3 0  9993
2 43573  86.3979 321.6467 0002111  98.4181 261.7254 14.34218994322482
IRIDIUM 154             
1 43574U 18061F   24265.45438061  .00000650  00000+0  22512-3 0  9994
2 43574  86.3982 321.6403 0002207  90.4128 269.7321 14.34219930322570
IRIDIUM 163             
1 43575U 18061G   24265.57488912  .00000270  00000+0  89514-4 0  9992
2 43575  86.3978 321.5253 0002074  93.9537 266.1896 14.34219460322567
IRIDIUM 156             
1 43576U 18061H   24265.54950937  .00000259  00000+0  85304-4 0  9991
2 43576  86.3977 321.5425 0002237 102.9080 257.2366 14.34214781322556
IRIDIUM 164             
1 43577U 18061J   24265.39095670  .00000580  00000+0  20005-3 0  9992
2 43577  86.3984 321.6393 0002338  91.8592 268.2871 14.34218122322574
IRIDIUM 159             
1 43578U 18061K   24265.56854803  .00000505  00000+0  17314-3 0  9999
2 43578  86.3978 321.5148 0002289  95.4355 264.7102 14.34220548322569
IRIDIUM 180             
1 43922U 19002A   24265.49827946  .00000296  00000+0  98750-4 0  9999
2 43922  86.3910 258.3769 0002370  85.2210 274.9256 14.34217808298168
IRIDIUM 176             
1 43923U 19002B   24265.49608029  .00000992  00000+0  15348-3 0  9993
2 43923  86.6041 258.3916 0002749  86.5649 273.5882 14.72254008306010
IRIDIUM 168             
1 43924U 19002C   24265.56170128  .00000451  00000+0  15393-3 0  9996
2 43924  86.3914 258.4101 0002359  88.1807 271.9659 14.34218108298153
IRIDIUM 173             
1 43925U 19002D   24265.54901563  .00000097  00000+0  27516-4 0  9997
2 43925  86.3911 258.3299 0002330  85.8889 274.2573 14.34218237298133
IRIDIUM 169             
1 43926U 19002E   24265.46006200  .00000559  00000+0  17615-3 0  9994
2 43926  86.4176 290.0193 0000408  84.8963 275.2281 14.38610875299114
IRIDIUM 172             
1 43927U 19002F   24265.47290574  .00000274  00000+0  90824-4 0  9993
2 43927  86.3909 258.3678 0002322  90.3856 269.7606 14.34218646298139
IRIDIUM 175             
1 43928U 19002G   24265.49054705  .00002662  00000+0  41833-3 0  9998
2 43928  86.1514 226.1075 0002074  88.3576 271.7878 14.72238397306001
IRIDIUM 171             
1 43929U 19002H   24265.45387716  .00000288  00000+0  95745-4 0  9990
2 43929  86.3919 258.6123 0002518  94.4314 265.7169 14.34218622298124
IRIDIUM 170             
1 43930U 19002J   24265.50225515  .00000977  00000+0  15106-3 0  9993
2 43930  86.6040 258.3943 0002656  86.2373 273.9147 14.72255322306024
IRIDIUM 167             
1 43931U 19002K   24265.37776505  .00000162  00000+0  50752-4 0  9992
2 43931  86.3910 258.4245 0002349  91.9570 268.1895 14.34218528298116
IRIDIUM 181             
1 56726U 23068S   24265.17985154  .00000866  00000+0  24990-3 0  9990
2 56726  86.8624 316.9409 0002372  97.2749 262.8722 14.43576387 70987
IRIDIUM 177             
1 56727U 23068T   24265.49002675  .00001253  00000+0  16157-3 0  9991
2 56727  86.1915 269.6210 0002055  95.8603 264.2852 14.80204020 72625
IRIDIUM 174             
1 56728U 23068U   24265.48467523  .00001252  00000+0  16139-3 0  9997
2 56728  86.1923 269.7350 0002252  96.5844 263.5633 14.80187721 72622
IRIDIUM 178             
1 56729U 23068V   24265.54668279  .00001011  00000+0  12960-3 0  9997
2 56729  86.5733 291.7522 0002431  93.8212 266.3288 14.80230515 72638
IRIDIUM 179             
1 56730U 23068W   24265.47363436  .00002552  00000+0  33232-3 0  9994
2 56730  86.6746 297.1354 0001872  95.6043 264.5392 14.80248688 72623
